{"fetched_at":"2026-07-19T07:04:52.450Z","source":"https://celestrak.org/NORAD/elements/gp.php?GROUP=qianfan&FORMAT=JSON","constellation":"qianfan","records":[{"OBJECT_NAME":"QIANFAN-193","OBJECT_ID":"2026-125L","EPOCH":"2026-07-18T14:23:52.911744","CLASSIFICATION_TYPE":"U","MEAN_MOTION":13.88172583,"ECCENTRICITY":0.001532,"INCLINATION":88.9942,"RA_OF_ASC_NODE":276.9019,"ARG_OF_PERICENTER":66.5877,"MEAN_ANOMALY":293.6905,"EPHEMERIS_TYPE":0,"NORAD_CAT_ID":69411,"ELEMENT_SET_NO":999,"REV_AT_EPOCH":614,"BSTAR":-1.7564,"MEAN_MOTION_DOT":-0.01959056,"MEAN_MOTION_DDOT":0},{"OBJECT_NAME":"QIANFAN-194","OBJECT_ID":"2026-125M","EPOCH":"2026-07-18T15:59:58.046784","CLASSIFICATION_TYPE":"U","MEAN_MOTION":13.89328075,"ECCENTRICITY":0.0013867,"INCLINATION":88.9944,"RA_OF_ASC_NODE":276.8944,"ARG_OF_PERICENTER":66.1326,"MEAN_ANOMALY":294.1298,"EPHEMERIS_TYPE":0,"NORAD_CAT_ID":69412,"ELEMENT_SET_NO":999,"REV_AT_EPOCH":614,"BSTAR":-1.7349,"MEAN_MOTION_DOT":-0.01972549,"MEAN_MOTION_DDOT":0},{"OBJECT_NAME":"QIANFAN-195","OBJECT_ID":"2026-125N","EPOCH":"2026-07-18T11:43:06.388032","CLASSIFICATION_TYPE":"U","MEAN_MOTION":13.93143174,"ECCENTRICITY":0.0021684,"INCLINATION":88.9941,"RA_OF_ASC_NODE":276.9042,"ARG_OF_PERICENTER":75.8931,"MEAN_ANOMALY":284.4652,"EPHEMERIS_TYPE":0,"NORAD_CAT_ID":69413,"ELEMENT_SET_NO":999,"REV_AT_EPOCH":613,"BSTAR":-1.6779,"MEAN_MOTION_DOT":-0.02035559,"MEAN_MOTION_DDOT":0},{"OBJECT_NAME":"QIANFAN-196","OBJECT_ID":"2026-125P","EPOCH":"2026-07-18T01:30:09.491040","CLASSIFICATION_TYPE":"U","MEAN_MOTION":13.91523492,"ECCENTRICITY":0.0021714,"INCLINATION":88.9932,"RA_OF_ASC_NODE":276.9494,"ARG_OF_PERICENTER":81.1048,"MEAN_ANOMALY":279.2583,"EPHEMERIS_TYPE":0,"NORAD_CAT_ID":69414,"ELEMENT_SET_NO":999,"REV_AT_EPOCH":607,"BSTAR":-1.8153,"MEAN_MOTION_DOT":-0.02133845,"MEAN_MOTION_DDOT":0},{"OBJECT_NAME":"QIANFAN-197","OBJECT_ID":"2026-125Q","EPOCH":"2026-07-17T21:48:51.380064","CLASSIFICATION_TYPE":"U","MEAN_MOTION":13.94017507,"ECCENTRICITY":0.00209103,"INCLINATION":88.9942,"RA_OF_ASC_NODE":276.9659,"ARG_OF_PERICENTER":77.0099,"MEAN_ANOMALY":283.3409,"EPHEMERIS_TYPE":0,"NORAD_CAT_ID":69415,"ELEMENT_SET_NO":999,"REV_AT_EPOCH":604,"BSTAR":-1.4903697,"MEAN_MOTION_DOT":-0.01828013,"MEAN_MOTION_DDOT":0},{"OBJECT_NAME":"QIANFAN-198","OBJECT_ID":"2026-125R","EPOCH":"2026-07-18T03:15:11.530368","CLASSIFICATION_TYPE":"U","MEAN_MOTION":13.93193027,"ECCENTRICITY":0.0019809,"INCLINATION":88.9936,"RA_OF_ASC_NODE":276.9433,"ARG_OF_PERICENTER":68.37,"MEAN_ANOMALY":291.9583,"EPHEMERIS_TYPE":0,"NORAD_CAT_ID":69416,"ELEMENT_SET_NO":999,"REV_AT_EPOCH":608,"BSTAR":-1.6612,"MEAN_MOTION_DOT":-0.02017648,"MEAN_MOTION_DDOT":0},{"OBJECT_NAME":"QIANFAN-199","OBJECT_ID":"2026-125S","EPOCH":"2026-07-17T22:27:23.408640","CLASSIFICATION_TYPE":"U","MEAN_MOTION":13.9817204,"ECCENTRICITY":0.0020735,"INCLINATION":88.9943,"RA_OF_ASC_NODE":276.9517,"ARG_OF_PERICENTER":61.7138,"MEAN_ANOMALY":298.6129,"EPHEMERIS_TYPE":0,"NORAD_CAT_ID":69417,"ELEMENT_SET_NO":999,"REV_AT_EPOCH":606,"BSTAR":-1.5461712,"MEAN_MOTION_DOT":-0.02046995,"MEAN_MOTION_DDOT":0},{"OBJECT_NAME":"QIANFAN-200","OBJECT_ID":"2026-125T","EPOCH":"2026-07-17T21:47:38.836032","CLASSIFICATION_TYPE":"U","MEAN_MOTION":13.8977798,"ECCENTRICITY":0.00143316,"INCLINATION":88.993,"RA_OF_ASC_NODE":276.9833,"ARG_OF_PERICENTER":71.1337,"MEAN_ANOMALY":289.1388,"EPHEMERIS_TYPE":0,"NORAD_CAT_ID":69418,"ELEMENT_SET_NO":999,"REV_AT_EPOCH":604,"BSTAR":-1.7844731,"MEAN_MOTION_DOT":-0.02040003,"MEAN_MOTION_DDOT":0},{"OBJECT_NAME":"QIANFAN-201","OBJECT_ID":"2026-153A","EPOCH":"2026-07-18T04:31:31.913184","CLASSIFICATION_TYPE":"U","MEAN_MOTION":14.22000035,"ECCENTRICITY":0.0006905,"INCLINATION":88.9921,"RA_OF_ASC_NODE":358.7016,"ARG_OF_PERICENTER":149.7286,"MEAN_ANOMALY":210.4306,"EPHEMERIS_TYPE":0,"NORAD_CAT_ID":69800,"ELEMENT_SET_NO":999,"REV_AT_EPOCH":197,"BSTAR":-0.84414,"MEAN_MOTION_DOT":-0.01723216,"MEAN_MOTION_DDOT":0},{"OBJECT_NAME":"QIANFAN-202","OBJECT_ID":"2026-153B","EPOCH":"2026-07-18T20:23:18.400128","CLASSIFICATION_TYPE":"U","MEAN_MOTION":14.188439,"ECCENTRICITY":0.0007089,"INCLINATION":88.9927,"RA_OF_ASC_NODE":358.633,"ARG_OF_PERICENTER":163.4691,"MEAN_ANOMALY":196.673,"EPHEMERIS_TYPE":0,"NORAD_CAT_ID":69801,"ELEMENT_SET_NO":999,"REV_AT_EPOCH":206,"BSTAR":0.000075477,"MEAN_MOTION_DOT":0.00000171,"MEAN_MOTION_DDOT":0},{"OBJECT_NAME":"QIANFAN-203","OBJECT_ID":"2026-153C","EPOCH":"2026-07-18T08:19:06.493152","CLASSIFICATION_TYPE":"U","MEAN_MOTION":14.17511061,"ECCENTRICITY":0.0012649,"INCLINATION":88.992,"RA_OF_ASC_NODE":358.6881,"ARG_OF_PERICENTER":191.3457,"MEAN_ANOMALY":168.7448,"EPHEMERIS_TYPE":0,"NORAD_CAT_ID":69802,"ELEMENT_SET_NO":999,"REV_AT_EPOCH":199,"BSTAR":-0.99096,"MEAN_MOTION_DOT":-0.01871829,"MEAN_MOTION_DDOT":0},{"OBJECT_NAME":"QIANFAN-204","OBJECT_ID":"2026-153D","EPOCH":"2026-07-18T20:16:34.254624","CLASSIFICATION_TYPE":"U","MEAN_MOTION":14.20114619,"ECCENTRICITY":0.0008047,"INCLINATION":88.9927,"RA_OF_ASC_NODE":358.6322,"ARG_OF_PERICENTER":166.9097,"MEAN_ANOMALY":193.2304,"EPHEMERIS_TYPE":0,"NORAD_CAT_ID":69803,"ELEMENT_SET_NO":999,"REV_AT_EPOCH":206,"BSTAR":0.000053604,"MEAN_MOTION_DOT":0.00000129,"MEAN_MOTION_DDOT":0},{"OBJECT_NAME":"QIANFAN-205","OBJECT_ID":"2026-153E","EPOCH":"2026-07-18T20:12:01.653120","CLASSIFICATION_TYPE":"U","MEAN_MOTION":14.22264878,"ECCENTRICITY":0.0007949,"INCLINATION":88.9926,"RA_OF_ASC_NODE":358.6315,"ARG_OF_PERICENTER":170.735,"MEAN_ANOMALY":189.399,"EPHEMERIS_TYPE":0,"NORAD_CAT_ID":69804,"ELEMENT_SET_NO":999,"REV_AT_EPOCH":206,"BSTAR":0.000039666,"MEAN_MOTION_DOT":0.00000103,"MEAN_MOTION_DDOT":0},{"OBJECT_NAME":"QIANFAN-206","OBJECT_ID":"2026-153F","EPOCH":"2026-07-18T19:56:39.321024","CLASSIFICATION_TYPE":"U","MEAN_MOTION":14.24034641,"ECCENTRICITY":0.000843,"INCLINATION":88.9926,"RA_OF_ASC_NODE":358.63,"ARG_OF_PERICENTER":171.412,"MEAN_ANOMALY":188.7218,"EPHEMERIS_TYPE":0,"NORAD_CAT_ID":69805,"ELEMENT_SET_NO":999,"REV_AT_EPOCH":206,"BSTAR":0.000012973,"MEAN_MOTION_DOT":4.4e-7,"MEAN_MOTION_DDOT":0},{"OBJECT_NAME":"QIANFAN-207","OBJECT_ID":"2026-153G","EPOCH":"2026-07-18T19:54:04.768704","CLASSIFICATION_TYPE":"U","MEAN_MOTION":14.24251159,"ECCENTRICITY":0.000787,"INCLINATION":88.9926,"RA_OF_ASC_NODE":358.6298,"ARG_OF_PERICENTER":171.4942,"MEAN_ANOMALY":188.6385,"EPHEMERIS_TYPE":0,"NORAD_CAT_ID":69806,"ELEMENT_SET_NO":999,"REV_AT_EPOCH":206,"BSTAR":0.000054708,"MEAN_MOTION_DOT":0.00000141,"MEAN_MOTION_DDOT":0},{"OBJECT_NAME":"QIANFAN-208","OBJECT_ID":"2026-153H","EPOCH":"2026-07-18T19:49:00.503328","CLASSIFICATION_TYPE":"U","MEAN_MOTION":14.25462867,"ECCENTRICITY":0.0008659,"INCLINATION":88.9926,"RA_OF_ASC_NODE":358.6292,"ARG_OF_PERICENTER":172.2142,"MEAN_ANOMALY":187.9187,"EPHEMERIS_TYPE":0,"NORAD_CAT_ID":69807,"ELEMENT_SET_NO":999,"REV_AT_EPOCH":206,"BSTAR":0.000061508,"MEAN_MOTION_DOT":0.0000016,"MEAN_MOTION_DDOT":0}]}
